"spkid","H","diameter","albedo","rot_per","GM","BV","UB","IR","epoch","epoch_mjd","e","a","q","i","om","w","ma","ad","tp","per"
1003654,,,,,,,,,2458846.5,58846,0.6958,2.998,0.912,24.64,139.38,2.27,2.95,5.08,2458830.96,1.9e+03
1003675,,,,,,,,,2458952.5,58952,0.9887,22.64,0.255,44.82,120.58,177.80,359.56,45.02,2459000.65,3.93e+04
1003672,,,,,,,,,2458973.5,58973,0.8596,3.603,0.506,18.47,240.11,207.64,6.86,6.70,2458925.91,2.5e+03
1003699,,,,,,,,,2459179.5,59179,0.9527,26.82,1.268,23.47,71.25,328.45,0.22,52.37,2459148.12,5.07e+04
1003715,,,,,,,,,2459068.5,59068,0.9092,1.02,0.093,28.15,173.43,171.61,358.96,1.95,2459069.58,376
1003716,,,,,,,,,2459069.5,59069,0.9394,1.391,0.084,37.56,165.26,116.42,0.70,2.70,2459068.34,599
1003811,,,,,,,,,2459398.5,59398,0.8102,4.196,0.796,12.17,262.40,46.09,356.06,7.59,2459432.89,3.14e+03
1003792,,,,,,,,,2459402.5,59402,0.6768,2.977,0.962,11.51,301.16,21.19,5.84,4.99,2459372.05,1.88e+03
1003909,,,,,,,,,2459463.5,59463,0.6708,3.746,1.233,20.02,99.63,210.45,12.35,6.26,2459372.68,2.65e+03
1003804,,,,,,,,,2459474.5,59474,0.6242,3.285,1.235,10.73,239.78,180.89,2.91,5.34,2459456.93,2.18e+03
1003914,,,,,,,,,2460127.5,60127,0.9469,19.33,1.027,38.31,164.57,105.89,0.01,37.64,2460126.61,3.11e+04
1003954,,,,,,,,,2460300.5,60300,0.9708,28.47,0.830,140.50,233.83,281.57,359.81,56.11,2460329.12,5.55e+04
1004010,,,,,,,,,2460488.5,60488,0.6984,2.229,0.672,10.05,139.78,53.71,21.84,3.79,2460414.79,1.22e+03
